[{"OBJECT_NAME":"QPS-SAR-12 (KUSHINADA-I)","OBJECT_ID":"2025-169A","EPOCH":"2026-03-09T10:50:23.327232","MEAN_MOTION":14.99881586,"ECCENTRICITY":0.00077939,"INCLINATION":42.0102,"RA_OF_ASC_NODE":204.8332,"ARG_OF_PERICENTER":277.3009,"MEAN_ANOMALY":82.6931,"EPHEMERIS_TYPE":0,"CLASSIFICATION_TYPE":"U","NORAD_CAT_ID":65116,"ELEMENT_SET_NO":999,"REV_AT_EPOCH":3243,"BSTAR":0.00057220088,"MEAN_MOTION_DOT":7.038e-5,"MEAN_MOTION_DDOT":0},{"OBJECT_NAME":"STARLINK-36228","OBJECT_ID":"2025-298X","EPOCH":"2026-03-09T22:44:16.822752","MEAN_MOTION":14.99133349,"ECCENTRICITY":0.00029437,"INCLINATION":70.0014,"RA_OF_ASC_NODE":13.8926,"ARG_OF_PERICENTER":274.4183,"MEAN_ANOMALY":85.664,"EPHEMERIS_TYPE":0,"CLASSIFICATION_TYPE":"U","NORAD_CAT_ID":67096,"ELEMENT_SET_NO":999,"REV_AT_EPOCH":1325,"BSTAR":0.00053016163,"MEAN_MOTION_DOT":6.371e-5,"MEAN_MOTION_DDOT":0}]
